COSMOS 2251 DEB         
1 33920U 93036DZ  26080.49771301  .00006029  00000+0  12527-2 0  9991
2 33920  74.0586 110.5017 0030330  95.2265 265.2363 14.60020282895556
COSMOS 2251 DEB         
1 33922U 93036EB  26080.91095450  .00001107  00000+0  29265-3 0  9994
2 33922  74.0482 321.7567 0021421  46.9123 325.8229 14.49891428900158
COSMOS 2251 DEB         
1 33924U 93036ED  26080.51536126  .00000354  00000+0  35368-3 0  9996
2 33924  73.9104 111.4191 0401013 129.1180 234.6307 13.50389476840728
COSMOS 2251 DEB         
1 33928U 93036EH  26080.81123802  .00001130  00000+0  30724-3 0  9990
2 33928  73.9240 225.9934 0059931 140.3926 220.1634 14.47651982900787
COSMOS 2251 DEB         
1 33932U 93036EM  26080.54315408  .00001028  00000+0  33838-3 0  9995
2 33932  74.0326 133.6478 0036574 191.5138 168.5185 14.39072660894192
COSMOS 2251 DEB         
1 33933U 93036EN  26080.79820321  .00000921  00000+0  33103-3 0  9994
2 33933  74.0868 239.5484 0072175 223.6709 135.8720 14.33734020892048
COSMOS 2251 DEB         
1 33934U 93036EP  26080.93532284  .00003658  00000+0  76735-3 0  9997
2 33934  74.0353 271.4336 0014910   5.4911 354.6415 14.59970764901861
COSMOS 2251 DEB         
1 33936U 93036ER  26080.80660429  .00003491  00000+0  71346-3 0  9996
2 33936  74.0178 208.0274 0028415 333.0793  26.8897 14.61007855903362
COSMOS 2251 DEB         
1 33938U 93036ET  26080.95164817  .00001781  00000+0  49423-3 0  9995
2 33938  74.0470  21.8768 0014342  84.0154 343.2695 14.47208488898359
COSMOS 2251 DEB         
1 33939U 93036EU  26080.86102056  .00087850  00000+0  50401-2 0  9991
2 33939  74.0042 237.0708 0003245 300.9412  59.1462 15.12100147902444
COSMOS 2251 DEB         
1 33940U 93036EV  26079.92410150  .00002888  00000+0  60942-3 0  9995
2 33940  74.0400 316.3844 0009717   8.3794  10.3443 14.59844308900268
COSMOS 2251 DEB         
1 33942U 93036EX  26080.81138435  .00000476  00000+0  16535-3 0  9990
2 33942  74.0338  92.3497 0019925 160.1071  13.8727 14.38138766895584
COSMOS 2251 DEB         
1 33944U 93036EZ  26080.87810777  .00000672  00000+0  21673-3 0  9991
2 33944  74.0387 126.4994 0113867 203.1108 335.9454 14.37573038894522
COSMOS 2251 DEB         
1 33945U 93036FA  26080.52041184  .00000270  00000+0  10432-3 0  9997
2 33945  74.0282 125.2596 0023038 194.2957 165.7546 14.34687220894329
COSMOS 2251 DEB         
1 33948U 93036FD  26080.82603189  .00000361  00000+0  13345-3 0  9999
2 33948  74.0339 123.3220 0023339 182.2687 177.8364 14.35751696894455
COSMOS 2251 DEB         
1 33971U 93036FE  26080.95196979  .00000703  00000+0  23143-3 0  9990
2 33971  74.0231  70.3424 0018135 156.3914 237.7009 14.39921357895676
COSMOS 2251 DEB         
1 33972U 93036FF  26080.82477133  .00004970  00000+0  15249-2 0  9998
2 33972  73.9976   7.9788 0124935 154.1906 273.3682 14.37473119884973
COSMOS 2251 DEB         
1 33973U 93036FG  26080.91900609  .00000354  00000+0  10673-3 0  9997
2 33973  74.0062 277.6948 0045101  72.1929  45.6317 14.45502187900338
COSMOS 2251 DEB         
1 33975U 93036FJ  26080.65175499  .00000592  00000+0  35399-3 0  9997
2 33975  73.7987 270.5594 0190143  26.0995 334.9571 14.00696532872141
COSMOS 2251 DEB         
1 33980U 93036FP  26080.87067108  .00003343  00000+0  70865-3 0  9998
2 33980  74.0191 230.3461 0028812 346.1763 170.1282 14.59345076902407
COSMOS 2251 DEB         
1 33982U 93036FR  26080.65323203  .00002697  00000+0  53658-3 0  9999
2 33982  74.0713 171.4042 0075097 192.2365 295.6868 14.60816929906032
COSMOS 2251 DEB         
1 33983U 93036FS  26080.82891599  .00001432  00000+0  36723-3 0  9997
2 33983  74.0507 320.8661 0019534  37.1421  39.7785 14.51115991900664
COSMOS 2251 DEB         
1 33984U 93036FT  26080.97532573  .00004480  00000+0  79326-3 0  9990
2 33984  74.0081 155.3224 0025105 319.5962 218.1207 14.67421911905213
COSMOS 2251 DEB         
1 33986U 93036FV  26080.56858971  .00001418  00000+0  42055-3 0  9997
2 33986  74.0340 119.0243 0040746 173.9485 340.0188 14.43743756894545
COSMOS 2251 DEB         
1 33990U 93036FZ  26080.57419304  .00000505  00000+0  49440-3 0  9997
2 33990  73.9263 127.3139 0404192 129.5531  19.8791 13.50162948840633
COSMOS 2251 DEB         
1 33992U 93036GB  26080.59252373  .00003990  00000+0  69845-3 0  9994
2 33992  74.0227 146.9172 0054884 241.7457 233.8841 14.67195302905741
COSMOS 2251 DEB         
1 33994U 93036GD  26080.96009850  .00000266  00000+0  90178-4 0  9994
2 33994  74.0459   6.7850 0022122 120.6947 317.9969 14.41291939898498
COSMOS 2251 DEB         
1 33995U 93036GE  26080.87089578  .00001733  00000+0  60125-3 0  9998
2 33995  74.0599 297.9139 0060146 286.9014  72.5550 14.35325557889416
COSMOS 2251 DEB         
1 33999U 93036GJ  26080.89983373  .00016322  00000+0  18333-2 0  9993
2 33999  73.9194  32.5979 0046186 261.3263  98.2683 14.85962410907227
COSMOS 2251 DEB         
1 34001U 93036GL  26080.51621049  .00000340  00000+0  12280-3 0  9995
2 34001  74.0360  99.9440 0019777 165.2539 348.3565 14.37220178895659
COSMOS 2251 DEB         
1 34003U 93036GN  26080.51146669  .00002201  00000+0  14630-2 0  9995
2 34003  74.0758 118.8164 0278620 208.8668 149.6803 13.84686864857921
COSMOS 2251 DEB         
1 34004U 93036GP  26080.56296597  .00003295  00000+0  85261-3 0  9990
2 34004  74.0333 127.6575 0028305 122.6117 237.7781 14.50036968894620
COSMOS 2251 DEB         
1 34005U 93036GQ  26080.94408053  .00000309  00000+0  10550-3 0  9997
2 34005  74.0467  30.3423 0019510 129.6129 293.7071 14.40393146898079
COSMOS 2251 DEB         
1 34006U 93036GR  26080.64842493  .00052493  00000+0  37169-2 0  9990
2 34006  74.0502 302.5961 0010968 199.1142 220.1349 15.04512073901515
COSMOS 2251 DEB         
1 34007U 93036GS  26080.91573371  .00003806  00000+0  69343-3 0  9991
2 34007  74.0185 155.8497 0047935 265.8279  93.7410 14.65672643905324
COSMOS 2251 DEB         
1 34008U 93036GT  26080.63928262  .00000228  00000+0  91979-4 0  9990
2 34008  74.0342 149.7711 0022388 125.6874  35.9811 14.33221567893813
COSMOS 2251 DEB         
1 34009U 93036GU  26080.45778673  .00000309  00000+0  12105-3 0  9993
2 34009  74.0375 156.5262 0028063 206.9050 164.4435 14.33312627893607
COSMOS 2251 DEB         
1 34010U 93036GV  26080.71191517  .00518582  00000+0  84809-2 0  9996
2 34010  73.9869  71.7592 0012387 227.2240 132.7932 15.50517262908001
COSMOS 2251 DEB         
1 34011U 93036GW  26080.54512305  .00002414  00000+0  73134-3 0  9992
2 34011  74.0137 146.7144 0038581 212.7386 147.1379 14.42394614893408
COSMOS 2251 DEB         
1 34014U 93036GZ  26080.77144954  .00006311  00000+0  94186-3 0  9991
2 34014  74.0143  87.3179 0039536 207.0863 332.2787 14.74479702907621
COSMOS 2251 DEB         
1 34015U 93036HA  26080.86790233  .00004008  00000+0  81966-3 0  9992
2 34015  74.0250 329.9290 0018845  42.1406  33.4325 14.61063189899780
COSMOS 2251 DEB         
1 34018U 93036HD  26080.60029951  .00000402  00000+0  30918-3 0  9994
2 34018  73.8759 284.5381 0264672 302.0478 112.8117 13.81218042860228
COSMOS 2251 DEB         
1 34019U 93036HE  26080.84735605  .00001773  00000+0  62620-3 0  9998
2 34019  73.9517 228.4023 0060929  25.7765 126.0895 14.34399311889419
COSMOS 2251 DEB         
1 34021U 93036HG  26080.96275526  .00001111  00000+0  29139-3 0  9999
2 34021  74.0354 303.4666 0019102  62.7228   1.2764 14.50318642900680
COSMOS 2251 DEB         
1 34022U 93036HH  26080.45913241  .00000500  00000+0  16956-3 0  9991
2 34022  74.0515  88.8725 0021166 136.1698  14.2401 14.39119377896159
COSMOS 2251 DEB         
1 34023U 93036HJ  26080.43424398  .00000878  00000+0  28197-3 0  9998
2 34023  74.0232  69.0572 0017753 150.8260  11.3566 14.40792650896357
COSMOS 2251 DEB         
1 34024U 93036HK  26080.93378241  .00000377  00000+0  13975-3 0  9991
2 34024  74.0454 134.1730 0020882 168.6123   9.8003 14.35518585894472
COSMOS 2251 DEB         
1 34026U 93036HM  26080.68807167  .00000662  00000+0  55512-3 0  9999
2 34026  73.7666 172.7338 0347609  26.8018 120.7911 13.65507481848828
COSMOS 2251 DEB         
1 34028U 93036HP  26080.77924086  .00000318  00000+0  38337-3 0  9995
2 34028  73.8832 195.3885 0546092 316.4373 200.1714 13.20726321823153
COSMOS 2251 DEB         
1 34031U 93036HS  26080.97047661  .00005430  00000+0  11115-2 0  9990
2 34031  74.0125 305.9964 0021373  42.5104  22.3103 14.60881678900144
COSMOS 2251 DEB         
1 34035U 93036HW  26080.92075293  .00006119  00000+0  14623-2 0  9993
2 34035  74.0644 162.4087 0039840 145.4478 337.0486 14.53338775894061
COSMOS 2251 DEB         
1 34036U 93036HX  26080.66393455  .00073376  00000+0  50743-2 0  9990
2 34036  74.0154 308.0237 0004411 305.4371  54.6407 15.05316440900537
COSMOS 2251 DEB         
1 34037U 93036HY  26080.81216339  .00001373  00000+0  48337-3 0  9998
2 34037  74.0496 229.0582 0054059 255.2254 104.2905 14.35006052891381
COSMOS 2251 DEB         
1 34040U 93036JB  26080.87453338  .00001408  00000+0  11113-2 0  9990
2 34040  73.9549 261.9815 0338977 195.8825 163.1455 13.68822675849562
COSMOS 2251 DEB         
1 34045U 93036JG  26080.60587377  .00000177  00000+0  72345-4 0  9995
2 34045  74.0377 129.9293 0026752 194.4919 320.5737 14.34128579894507
COSMOS 2251 DEB         
1 34046U 93036JH  26080.69723243  .00006217  00000+0  16358-2 0  9990
2 34046  74.0391 185.5478 0077901 246.1113 276.0224 14.47462046892575
COSMOS 2251 DEB         
1 34050U 93036JM  26080.79879677  .00001358  00000+0  82016-3 0  9995
2 34050  74.0880 200.0723 0217158 240.9595 284.8311 13.96487666868143
COSMOS 2251 DEB         
1 34053U 93036JQ  26080.37159581  .00000417  00000+0  40046-3 0  9999
2 34053  73.8417  83.1923 0424959 215.6353 141.5694 13.49295913840144
COSMOS 2251 DEB         
1 34056U 93036JT  26080.94952360  .00002455  00000+0  10519-2 0  9996
2 34056  74.0572 258.8613 0124129 283.3409 194.8880 14.21328308878201
COSMOS 2251 DEB         
1 34058U 93036JV  26080.92193593  .00000628  00000+0  58569-3 0  9999
2 34058  73.9360  17.3329 0377305 353.4937  67.2793 13.56213934844876
